{"fetched_at":"2026-03-29T16:36:15Z","count":15609,"tles":[{"name":"NAVSTAR 46 (USA 145)","line1":"1 25933U 99055A   26087.53066664 -.00000035  00000+0  00000+0 0  9996","line2":"2 25933  51.5363 298.9957 0106384 172.3188 190.6623  2.00566398193962","category":"GPS"}]}